IRIDIUM 921 [-]         
1 24873U 97034E   24032.41102223  .00019941  00000+0  66449-3 0  9998
2 24873  86.3876 355.3370 0008067  69.6514 290.5601 15.30957031454204
IRIDIUM 26 [-]          
1 24903U 97043A   24032.29169251  .00000635  00000+0  21128-3 0  9997
2 24903  86.3991 321.2180 0002035  81.9275 278.2152 14.36187406384681
IRIDIUM 22 [-]          
1 24907U 97043E   24032.79965167  .00000573  00000+0  19399-3 0  9994
2 24907  86.3997 324.1329 0002236  87.7295 272.4157 14.35085974384842
DUMMY MASS 1 [-]        
1 24925U 97048A   24032.70857577  .00000675  00000+0  74030-4 0  9992
2 24925  86.3364   7.0238 0009012 115.0197 245.1964 14.86025454430636
IRIDIUM 33 [-]          
1 24946U 97051C   24032.39805360  .00000447  00000+0  15251-3 0  9993
2 24946  86.3905 353.4967 0005751 278.8610  81.1934 14.34244344380803
IRIDIUM 28 [-]          
1 24948U 97051E   24032.38232065  .00000610  00000+0  20151-3 0  9997
2 24948  86.3997 352.0451 0001822  82.5606 277.5798 14.36483933381787
